NORAD_CAT_ID,OBJECT_NAME,OBJECT_TYPE,EPOCH,MEAN_MOTION,ECCENTRICITY,INCLINATION,RA_OF_ASC_NODE,ARG_OF_PERICENTER,MEAN_ANOMALY,BSTAR,MEAN_MOTION_DOT,MEAN_MOTION_DDOT,TLE_LINE0,TLE_LINE1,TLE_LINE2,SEMIMAJOR_AXIS,PERIOD,APOGEE,PERIGEE,DECAYED
50166.0,STARLINK-3305,PAYLOAD,2022-12-21 17:46:59,15.08831559,0.0002948,53.2173,119.1818,54.4378,305.6889,-3.076e-05,-7.78e-06,0.0,0 STARLINK-3305,1 50166U 21125L   22355.74096669 -.00000778  00000-0 -30760-4 0  9997,2 50166  53.2173 119.1818 0002948  54.4378 305.6889 15.08831559 56289,6917.906,95.438,541.811,537.732,0.0
50166.0,STARLINK-3305,PAYLOAD,2022-12-22 11:16:13,15.08848032,0.0002981,53.2171,115.9127,52.0158,308.1103,0.00015,2.1e-05,0.0,0 STARLINK-3305,1 50166U 21125L   22356.46960046  .00002100  00000-0  15000-3 0  9994,2 50166  53.2171 115.9127 0002981  52.0158 308.1103 15.08848032 59476,6917.856,95.437,541.783,537.659,0.0
50166.0,STARLINK-3305,PAYLOAD,2022-12-22 14:26:59,15.0884788,0.0003009,53.217,115.3179,51.9281,308.1982,0.00015755,2.22e-05,0.0,0 STARLINK-3305,1 50166U 21125L   22356.60208066  .00002220  00000-0  15755-3 0  9997,2 50166  53.2170 115.3179 0003009  51.9281 308.1982 15.08847880 56419,6917.856,95.437,541.803,537.64,0.0
50166.0,STARLINK-3305,PAYLOAD,2022-12-22 17:37:46,15.08837673,0.0002906,53.2168,114.7253,46.9829,313.1406,0.00025713,3.806e-05,0.0,0 STARLINK-3305,1 50166U 21125L   22356.73456690  .00003806  00000-0  25713-3 0  9995,2 50166  53.2168 114.7253 0002906  46.9829 313.1406 15.08837673 56437,6917.888000000001,95.438,541.763,537.742,0.0
50166.0,STARLINK-3305,PAYLOAD,2022-12-23 09:31:38,15.08834774,0.0002963,53.217,111.7514,48.1497,311.9748,8.4793e-05,1.061e-05,0.0,0 STARLINK-3305,1 50166U 21125L   22357.39696960  .00001061  00000-0  84793-4 0  9999,2 50166  53.2170 111.7514 0002963  48.1497 311.9748 15.08834774 59612,6917.896,95.438,541.811,537.712,0.0
50166.0,STARLINK-3305,PAYLOAD,2022-12-23 14:17:47,15.08839289,0.0002872,53.2168,110.8578,49.9659,310.1584,0.00014257,1.981e-05,0.0,0 STARLINK-3305,1 50166U 21125L   22357.59568739  .00001981  00000-0  14257-3 0  9991,2 50166  53.2168 110.8578 0002872  49.9659 310.1584 15.08839289 59645,6917.8830000000025,95.438,541.734,537.761,0.0
50166.0,STARLINK-3305,PAYLOAD,2022-12-24 06:11:37,15.08854615,0.0002898,53.217,107.8842,51.4321,308.6931,0.00021932,3.205e-05,0.0,0 STARLINK-3305,1 50166U 21125L   22358.25807827  .00003205  00000-0  21932-3 0  9998,2 50166  53.2170 107.8842 0002898  51.4321 308.6931 15.08854615 56667,6917.8359999999975,95.437,541.706,537.696,0.0
50166.0,STARLINK-3305,PAYLOAD,2022-12-24 10:57:47,15.08842093,0.0003223,53.2166,106.993,42.4964,317.6277,3.469e-05,2.63e-06,0.0,0 STARLINK-3305,1 50166U 21125L   22358.45680466  .00000263  00000-0  34690-4 0  9995,2 50166  53.2166 106.9930 0003223  42.4964 317.6277 15.08842093 59771,6917.874,95.437,541.969,537.509,0.0
50166.0,STARLINK-3305,PAYLOAD,2022-12-24 14:08:34,15.08838579,0.0002841,53.2172,106.3961,51.414,308.7107,-2.326e-05,-6.59e-06,0.0,0 STARLINK-3305,1 50166U 21125L   22358.58928593 -.00000659  00000-0 -23260-4 0  9997,2 50166  53.2172 106.3961 0002841  51.4140 308.7107 15.08838579 56715,6917.885,95.438,541.715,537.784,0.0
50166.0,STARLINK-3305,PAYLOAD,2022-12-25 10:48:35,15.08832679,0.0002721,53.2175,102.5319,48.4986,311.624,8.648299999999999e-05,1.088e-05,0.0,0 STARLINK-3305,1 50166U 21125L   22359.45041077  .00001088  00000-0  86483-4 0  9998,2 50166  53.2175 102.5319 0002721  48.4986 311.6240 15.08832679 59926,6917.903,95.438,541.65,537.885,0.0
50166.0,STARLINK-3305,PAYLOAD,2022-12-25 13:59:21,15.08837355,0.0002807,53.2172,101.9372,46.1481,313.9743,6.4165e-05,7.33e-06,0.0,0 STARLINK-3305,1 50166U 21125L   22359.58288722  .00000733  00000-0  64165-4 0  9991,2 50166  53.2172 101.9372 0002807  46.1481 313.9743 15.08837355 59946,6917.888000000001,95.438,541.695,537.812,0.0
50166.0,STARLINK-3305,PAYLOAD,2022-12-26 02:42:26,15.08834796,0.0002809,53.2176,99.5587,46.0689,314.0534,4.9099e-05,4.93e-06,0.0,0 STARLINK-3305,1 50166U 21125L   22360.11281154  .00000493  00000-0  49099-4 0  9996,2 50166  53.2176  99.5587 0002809  46.0689 314.0534 15.08834796 56944,6917.896,95.438,541.705,537.818,0.0
50166.0,STARLINK-3305,PAYLOAD,2022-12-26 13:50:08,15.08836234,0.0002824,53.2176,97.477,46.6527,313.47,5.1669e-05,5.34e-06,0.0,0 STARLINK-3305,1 50166U 21125L   22360.57649144  .00000534  00000-0  51669-4 0  9995,2 50166  53.2176  97.4770 0002824  46.6527 313.4700 15.08836234 60097,6917.892,95.438,541.711,537.803,0.0
50166.0,STARLINK-3305,PAYLOAD,2022-12-26 15:25:32,15.08835593,0.0002736,53.2179,97.1799,48.6592,311.4636,2.8359e-05,1.63e-06,0.0,0 STARLINK-3305,1 50166U 21125L   22360.64273225  .00000163  00000-0  28359-4 0  9994,2 50166  53.2179  97.1799 0002736  48.6592 311.4636 15.08835593 60109,6917.894,95.438,541.6519999999998,537.866,0.0
50166.0,STARLINK-3305,PAYLOAD,2022-12-27 08:54:46,15.08843414,0.0002723999999999,53.2181,93.909,45.5519,314.5695,0.00021926,3.203e-05,0.0,0 STARLINK-3305,1 50166U 21125L   22361.37136635  .00003203  00000-0  21926-3 0  9998,2 50166  53.2181  93.9090 0002724  45.5519 314.5695 15.08843414 57131,6917.87,95.437,541.619,537.851,0.0
50166.0,STARLINK-3305,PAYLOAD,2022-12-28 05:34:46,15.08852933,0.0002784,53.2171,90.0433,43.8604,316.2609,0.0002445,3.606e-05,0.0,0 STARLINK-3305,1 50166U 21125L   22362.23247978  .00003606  00000-0  24450-3 0  9999,2 50166  53.2171  90.0433 0002784  43.8604 316.2609 15.08852933 60348,6917.840999999999,95.437,541.632,537.78,0.0
50166.0,STARLINK-3305,PAYLOAD,2022-12-29 05:25:34,15.08827356,0.0002316999999999,53.2164,85.5805,44.6657,315.4521,-0.00022491,-3.865e-05,0.0,0 STARLINK-3305,1 50166U 21125L   22363.22609396 -.00003865  00000-0 -22491-3 0  9997,2 50166  53.2164  85.5805 0002317  44.6657 315.4521 15.08827356 57410,6917.919,95.438,541.387,538.181,0.0
50166.0,STARLINK-3305,PAYLOAD,2022-12-29 11:47:08,15.08824701,0.0002568,53.2195,84.3932,40.2889,319.8293,-0.00011992,-2.196e-05,0.0,0 STARLINK-3305,1 50166U 21125L   22363.49106509 -.00002196  00000-0 -11992-3 0  9994,2 50166  53.2195  84.3932 0002568  40.2889 319.8293 15.08824701 57458,6917.927,95.439,541.569,538.016,0.0
50166.0,STARLINK-3305,PAYLOAD,2022-12-30 11:37:55,15.08827088,0.0002593999999999,53.2182,79.9347,29.6066,330.5073,3.3258e-05,2.41e-06,0.0,0 STARLINK-3305,1 50166U 21125L   22364.48467064  .00000241  00000-0  33258-4 0  9997,2 50166  53.2182  79.9347 0002594  29.6066 330.5073 15.08827088 60687,6917.92,95.438,541.5790000000002,537.99,0.0
50166.0,STARLINK-3305,PAYLOAD,2022-12-31 05:07:07,15.08853934,0.0002508999999999,53.2179,76.6627,32.2369,327.8776,0.00033142,4.992e-05,0.0,0 STARLINK-3305,1 50166U 21125L   22365.21328527  .00004992  00000-0  33142-3 0  9997,2 50166  53.2179  76.6627 0002509  32.2369 327.8776 15.08853934 57718,6917.8380000000025,95.437,541.438,537.967,0.0
50166.0,STARLINK-3305,PAYLOAD,2022-12-31 11:28:40,15.08853413,0.0002608,53.2171,75.4733,35.9102,324.2065,0.00027742,4.131e-05,0.0,0 STARLINK-3305,1 50166U 21125L   22365.47824512  .00004131  00000-0  27742-3 0  9994,2 50166  53.2171  75.4733 0002608  35.9102 324.2065 15.08853413 60831,6917.839,95.437,541.509,537.9,0.0
50166.0,STARLINK-3305,PAYLOAD,2022-12-31 14:39:26,15.08848005,0.0002426,53.2189,74.8781,28.3681,331.7443,0.00035831,5.42e-05,0.0,0 STARLINK-3305,1 50166U 21125L   22365.61072520  .00005420  00000-0  35831-3 0  9994,2 50166  53.2189  74.8781 0002426  28.3681 331.7443 15.08848005 60858,6917.856,95.437,541.399,538.043,0.0
50166.0,STARLINK-3305,PAYLOAD,2023-01-01 04:57:55,15.08844395,0.0002374,53.2179,72.2029,29.8397,330.2731,0.00016829,2.391e-05,0.0,0 STARLINK-3305,1 50166U 21125L   23001.20689467  .00002391  00000-0  16829-3 0  9991,2 50166  53.2179  72.2029 0002374  29.8397 330.2731 15.08844395 57865,6917.8669999999975,95.437,541.374,538.09,0.0
50166.0,STARLINK-3305,PAYLOAD,2023-01-01 14:30:16,15.08824529,0.0002447,53.2184,70.4177,31.7604,328.3535,-7.6396e-05,-1.504e-05,0.0,0 STARLINK-3305,1 50166U 21125L   23001.60435538 -.00001504  00000-0 -76396-4 0  9996,2 50166  53.2184  70.4177 0002447  31.7604 328.3535 15.08824529 57923,6917.928000000001,95.439,541.485,538.1,0.0
50166.0,STARLINK-3305,PAYLOAD,2023-01-01 20:51:48,15.08834944,0.0002536,53.2184,69.2291,28.519,331.5941,-8.0254e-05,-1.565e-05,0.0,0 STARLINK-3305,1 50166U 21125L   23001.86930786 -.00001565  00000-0 -80254-4 0  9994,2 50166  53.2184  69.2291 0002536  28.5190 331.5941 15.08834944 61046,6917.896,95.438,541.515,538.006,0.0
50166.0,STARLINK-3305,PAYLOAD,2023-01-02 03:13:19,15.08839838,0.000241,53.2187,68.0383,28.3771,331.7352,-0.00027428,-4.651e-05,0.0,0 STARLINK-3305,1 50166U 21125L   23002.13425719 -.00004651  00000-0 -27428-3 0  9992,2 50166  53.2187  68.0383 0002410  28.3771 331.7352 15.08839838 58009,6917.880999999999,95.438,541.413,538.0790000000002,0.0
50166.0,STARLINK-3305,PAYLOAD,2023-01-02 14:21:01,15.08848006,0.0002557,53.2181,65.9581,27.7626,332.3502,-3.1611e-05,-7.92e-06,0.0,0 STARLINK-3305,1 50166U 21125L   23002.59793218 -.00000792  00000-0 -31611-4 0  9996,2 50166  53.2181  65.9581 0002557  27.7626 332.3502 15.08848006 58071,6917.856,95.437,541.49,537.952,0.0
50166.0,STARLINK-3305,PAYLOAD,2023-01-02 20:42:34,15.08837944,0.0002793999999999,53.2187,64.7688,33.1564,326.9603,-8.9429e-05,-1.712e-05,0.0,0 STARLINK-3305,1 50166U 21125L   23002.86289808 -.00001712  00000-0 -89429-4 0  9994,2 50166  53.2187  64.7688 0002794  33.1564 326.9603 15.08837944 58112,6917.887,95.438,541.685,537.819,0.0
50166.0,STARLINK-3305,PAYLOAD,2023-01-03 12:36:26,15.08833181,0.0002616,53.2183,61.795,32.4604,327.6549,0.00011948,1.613e-05,0.0,0 STARLINK-3305,1 50166U 21125L   23003.52530333  .00001613  00000-0  11948-3 0  9998,2 50166  53.2183  61.7950 0002616  32.4604 327.6549 15.08833181 61296,6917.901,95.438,541.576,537.957,0.0
